[{"OBJECT_NAME":"EGYPTSAT-A (MISRSAT-A)","OBJECT_ID":"2019-008A","EPOCH":"2026-03-09T23:42:01.937952","MEAN_MOTION":14.72293505,"ECCENTRICITY":0.00010879,"INCLINATION":98.0143,"RA_OF_ASC_NODE":135.2007,"ARG_OF_PERICENTER":85.2157,"MEAN_ANOMALY":274.9175,"EPHEMERIS_TYPE":0,"CLASSIFICATION_TYPE":"U","NORAD_CAT_ID":44047,"ELEMENT_SET_NO":999,"REV_AT_EPOCH":37864,"BSTAR":9.9362666e-5,"MEAN_MOTION_DOT":5.78e-6,"MEAN_MOTION_DDOT":0},{"OBJECT_NAME":"NOAA 17 DEB","OBJECT_ID":"2002-032F","EPOCH":"2026-03-09T15:38:24.237024","MEAN_MOTION":14.76713464,"ECCENTRICITY":0.0058557,"INCLINATION":98.6892,"RA_OF_ASC_NODE":128.1845,"ARG_OF_PERICENTER":170.0846,"MEAN_ANOMALY":190.1532,"EPHEMERIS_TYPE":0,"CLASSIFICATION_TYPE":"U","NORAD_CAT_ID":48165,"ELEMENT_SET_NO":999,"REV_AT_EPOCH":26568,"BSTAR":0.0014273352,"MEAN_MOTION_DOT":0.00010229,"MEAN_MOTION_DDOT":0}]
